ATLAS CENTAUR R/B       
1 06155U 72065B   26013.42081313  .00000946  00000+0  13248-3 0  9990
2 06155  35.0015 269.6071 0034624 265.3557  94.3188 14.77506430833088
SL-8 R/B                
1 08459U 75112B   26013.75929992  .00000165  00000+0  62963-4 0  9997
2 08459  74.0614 119.9631 0016438 228.0108 131.9647 14.38169326623974
SL-3 R/B                
1 10114U 77057B   26013.91423207  .00008037  00000+0  17916-3 0  9997
2 10114  97.5699 183.5195 0008425 116.7609 243.4502 15.43835141659875
SEASAT 1                
1 10967U 78064A   26013.77993879  .00000229  00000+0  10252-3 0  9994
2 10967 108.0157  10.2624 0001168 275.5111  84.5901 14.46102029498579
SL-14 R/B               
1 11267U 79011B   26013.64869391  .00000535  00000+0  50396-4 0  9992
2 11267  82.5256 148.7821 0014813 238.7227 121.2542 14.91820855520575
SL-8 R/B                
1 11574U 79089B   26013.88154265  .00000277  00000+0  91868-4 0  9993
2 11574  74.0673 192.4897 0015441  14.6293 345.5307 14.42306475428206
SL-14 R/B               
1 11672U 80005B   26013.96119507  .00000507  00000+0  48837-4 0  9995
2 11672  82.5147 359.1354 0015501 352.1827   7.9148 14.90839434468334
SL-8 R/B                
1 12139U 81003B   26013.66170197  .00019343  00000+0  51138-3 0  9997
2 12139  82.9382 340.8218 0272091  10.7333 349.9540 15.08436467306371
SL-3 R/B                
1 12465U 81046B   26013.92265335  .00006799  00000+0  16649-3 0  9993
2 12465  81.2325 355.4124 0018535 204.7370 155.2986 15.40399211429994
SL-3 R/B                
1 12904U 81103B   26013.84143738  .00002606  00000+0  11724-3 0  9990
2 12904  81.1595 277.7492 0014236 107.0200 253.2592 15.20671054964896
SL-3 R/B                
1 13068U 82013B   26013.87375521  .00002781  00000+0  12199-3 0  9994
2 13068  81.1727 224.9875 0023008   7.0342 353.1207 15.21396708396014
SL-3 R/B                
1 13154U 82039B   26013.85229338  .00001733  00000+0  10490-3 0  9998
2 13154  81.1680 279.1445 0029852 144.0031 216.3213 15.09743124373367
