CCSDS_OMM_VERS = 2.0
CREATION_DATE  = 
ORIGINATOR     = 

OBJECT_NAME    = ATLAS CENTAUR R/B
OBJECT_ID      = 1972-065B
CENTER_NAME    = EARTH
REF_FRAME      = TEME
TIME_SYSTEM    = UTC
MEAN_ELEMENT_THEORY = SGP/SGP4

EPOCH          = 2026-01-13T10:05:58.254432
MEAN_MOTION    = 14.77506430
ECCENTRICITY   = .00346249
INCLINATION    = 35.0015
RA_OF_ASC_NODE = 269.6071
ARG_OF_PERICENTER = 265.3557
MEAN_ANOMALY   = 94.3188

EPHEMERIS_TYPE = 0
CLASSIFICATION_TYPE = U
NORAD_CAT_ID   = 6155
ELEMENT_SET_NO = 999
REV_AT_EPOCH   = 83308
BSTAR          = .13248145E-3
MEAN_MOTION_DOT = .946E-5
MEAN_MOTION_DDOT = 0

CCSDS_OMM_VERS = 2.0
CREATION_DATE  = 
ORIGINATOR     = 

OBJECT_NAME    = SL-8 R/B
OBJECT_ID      = 1975-112B
CENTER_NAME    = EARTH
REF_FRAME      = TEME
TIME_SYSTEM    = UTC
MEAN_ELEMENT_THEORY = SGP/SGP4

EPOCH          = 2026-01-13T18:13:23.513088
MEAN_MOTION    = 14.38169326
ECCENTRICITY   = .00164387
INCLINATION    = 74.0614
RA_OF_ASC_NODE = 119.9631
ARG_OF_PERICENTER = 228.0108
MEAN_ANOMALY   = 131.9647

EPHEMERIS_TYPE = 0
CLASSIFICATION_TYPE = U
NORAD_CAT_ID   = 8459
ELEMENT_SET_NO = 999
REV_AT_EPOCH   = 62397
BSTAR          = .6296264E-4
MEAN_MOTION_DOT = .165E-5
MEAN_MOTION_DDOT = 0

CCSDS_OMM_VERS = 2.0
CREATION_DATE  = 
ORIGINATOR     = 

OBJECT_NAME    = SL-3 R/B
OBJECT_ID      = 1977-057B
CENTER_NAME    = EARTH
REF_FRAME      = TEME
TIME_SYSTEM    = UTC
MEAN_ELEMENT_THEORY = SGP/SGP4

EPOCH          = 2026-01-13T21:56:29.650848
MEAN_MOTION    = 15.43835141
ECCENTRICITY   = .00084259
INCLINATION    = 97.5699
RA_OF_ASC_NODE = 183.5195
ARG_OF_PERICENTER = 116.7609
MEAN_ANOMALY   = 243.4502

EPHEMERIS_TYPE = 0
CLASSIFICATION_TYPE = U
NORAD_CAT_ID   = 10114
ELEMENT_SET_NO = 999
REV_AT_EPOCH   = 65987
BSTAR          = .17915972E-3
MEAN_MOTION_DOT = .8037E-4
MEAN_MOTION_DDOT = 0

CCSDS_OMM_VERS = 2.0
CREATION_DATE  = 
ORIGINATOR     = 

OBJECT_NAME    = SEASAT 1
OBJECT_ID      = 1978-064A
CENTER_NAME    = EARTH
REF_FRAME      = TEME
TIME_SYSTEM    = UTC
MEAN_ELEMENT_THEORY = SGP/SGP4

EPOCH          = 2026-01-13T18:43:06.711456
MEAN_MOTION    = 14.46102029
ECCENTRICITY   = .0001168
INCLINATION    = 108.0157
RA_OF_ASC_NODE = 10.2624
ARG_OF_PERICENTER = 275.5111
MEAN_ANOMALY   = 84.5901

EPHEMERIS_TYPE = 0
CLASSIFICATION_TYPE = U
NORAD_CAT_ID   = 10967
ELEMENT_SET_NO = 999
REV_AT_EPOCH   = 49857
BSTAR          = .10251789E-3
MEAN_MOTION_DOT = .229E-5
MEAN_MOTION_DDOT = 0

CCSDS_OMM_VERS = 2.0
CREATION_DATE  = 
ORIGINATOR     = 

OBJECT_NAME    = SL-14 R/B
OBJECT_ID      = 1979-011B
CENTER_NAME    = EARTH
REF_FRAME      = TEME
TIME_SYSTEM    = UTC
MEAN_ELEMENT_THEORY = SGP/SGP4

EPOCH          = 2026-01-13T15:34:07.153824
MEAN_MOTION    = 14.91820855
ECCENTRICITY   = .00148134
INCLINATION    = 82.5256
RA_OF_ASC_NODE = 148.7821
ARG_OF_PERICENTER = 238.7227
MEAN_ANOMALY   = 121.2542

EPHEMERIS_TYPE = 0
CLASSIFICATION_TYPE = U
NORAD_CAT_ID   = 11267
ELEMENT_SET_NO = 999
REV_AT_EPOCH   = 52057
BSTAR          = .50395889E-4
MEAN_MOTION_DOT = .535E-5
MEAN_MOTION_DDOT = 0

CCSDS_OMM_VERS = 2.0
CREATION_DATE  = 
ORIGINATOR     = 

OBJECT_NAME    = SL-8 R/B
OBJECT_ID      = 1979-089B
CENTER_NAME    = EARTH
REF_FRAME      = TEME
TIME_SYSTEM    = UTC
MEAN_ELEMENT_THEORY = SGP/SGP4

EPOCH          = 2026-01-13T21:09:25.284960
MEAN_MOTION    = 14.42306475
ECCENTRICITY   = .00154415
INCLINATION    = 74.0673
RA_OF_ASC_NODE = 192.4897
ARG_OF_PERICENTER = 14.6293
MEAN_ANOMALY   = 345.5307

EPHEMERIS_TYPE = 0
CLASSIFICATION_TYPE = U
NORAD_CAT_ID   = 11574
ELEMENT_SET_NO = 999
REV_AT_EPOCH   = 42820
BSTAR          = .91867554E-4
MEAN_MOTION_DOT = .277E-5
MEAN_MOTION_DDOT = 0

CCSDS_OMM_VERS = 2.0
CREATION_DATE  = 
ORIGINATOR     = 

OBJECT_NAME    = SL-14 R/B
OBJECT_ID      = 1980-005B
CENTER_NAME    = EARTH
REF_FRAME      = TEME
TIME_SYSTEM    = UTC
MEAN_ELEMENT_THEORY = SGP/SGP4

EPOCH          = 2026-01-13T23:04:07.254048
MEAN_MOTION    = 14.90839434
ECCENTRICITY   = .00155018
INCLINATION    = 82.5147
RA_OF_ASC_NODE = 359.1354
ARG_OF_PERICENTER = 352.1827
MEAN_ANOMALY   = 7.9148

EPHEMERIS_TYPE = 0
CLASSIFICATION_TYPE = U
NORAD_CAT_ID   = 11672
ELEMENT_SET_NO = 999
REV_AT_EPOCH   = 46833
BSTAR          = .48836564E-4
MEAN_MOTION_DOT = .507E-5
MEAN_MOTION_DDOT = 0

CCSDS_OMM_VERS = 2.0
CREATION_DATE  = 
ORIGINATOR     = 

OBJECT_NAME    = SL-8 R/B
OBJECT_ID      = 1981-003B
CENTER_NAME    = EARTH
REF_FRAME      = TEME
TIME_SYSTEM    = UTC
MEAN_ELEMENT_THEORY = SGP/SGP4

EPOCH          = 2026-01-13T15:52:51.050208
MEAN_MOTION    = 15.08436467
ECCENTRICITY   = .0272091
INCLINATION    = 82.9382
RA_OF_ASC_NODE = 340.8218
ARG_OF_PERICENTER = 10.7333
MEAN_ANOMALY   = 349.9540

EPHEMERIS_TYPE = 0
CLASSIFICATION_TYPE = U
NORAD_CAT_ID   = 12139
ELEMENT_SET_NO = 999
REV_AT_EPOCH   = 30637
BSTAR          = .51137865E-3
MEAN_MOTION_DOT = .19343E-3
MEAN_MOTION_DDOT = 0

CCSDS_OMM_VERS = 2.0
CREATION_DATE  = 
ORIGINATOR     = 

OBJECT_NAME    = SL-3 R/B
OBJECT_ID      = 1981-046B
CENTER_NAME    = EARTH
REF_FRAME      = TEME
TIME_SYSTEM    = UTC
MEAN_ELEMENT_THEORY = SGP/SGP4

EPOCH          = 2026-01-13T22:08:37.249440
MEAN_MOTION    = 15.40399211
ECCENTRICITY   = .00185352
INCLINATION    = 81.2325
RA_OF_ASC_NODE = 355.4124
ARG_OF_PERICENTER = 204.7370
MEAN_ANOMALY   = 155.2986

EPHEMERIS_TYPE = 0
CLASSIFICATION_TYPE = U
NORAD_CAT_ID   = 12465
ELEMENT_SET_NO = 999
REV_AT_EPOCH   = 42999
BSTAR          = .16648544E-3
MEAN_MOTION_DOT = .6799E-4
MEAN_MOTION_DDOT = 0

CCSDS_OMM_VERS = 2.0
CREATION_DATE  = 
ORIGINATOR     = 

OBJECT_NAME    = SL-3 R/B
OBJECT_ID      = 1981-103B
CENTER_NAME    = EARTH
REF_FRAME      = TEME
TIME_SYSTEM    = UTC
MEAN_ELEMENT_THEORY = SGP/SGP4

EPOCH          = 2026-01-13T20:11:40.189632
MEAN_MOTION    = 15.20671054
ECCENTRICITY   = .00142364
INCLINATION    = 81.1595
RA_OF_ASC_NODE = 277.7492
ARG_OF_PERICENTER = 107.0200
MEAN_ANOMALY   = 253.2592

EPHEMERIS_TYPE = 0
CLASSIFICATION_TYPE = U
NORAD_CAT_ID   = 12904
ELEMENT_SET_NO = 999
REV_AT_EPOCH   = 96489
BSTAR          = .11723669E-3
MEAN_MOTION_DOT = .2606E-4
MEAN_MOTION_DDOT = 0

CCSDS_OMM_VERS = 2.0
CREATION_DATE  = 
ORIGINATOR     = 

OBJECT_NAME    = SL-3 R/B
OBJECT_ID      = 1982-013B
CENTER_NAME    = EARTH
REF_FRAME      = TEME
TIME_SYSTEM    = UTC
MEAN_ELEMENT_THEORY = SGP/SGP4

EPOCH          = 2026-01-13T20:58:12.450144
MEAN_MOTION    = 15.21396708
ECCENTRICITY   = .0023008
INCLINATION    = 81.1727
RA_OF_ASC_NODE = 224.9875
ARG_OF_PERICENTER = 7.0342
MEAN_ANOMALY   = 353.1207

EPHEMERIS_TYPE = 0
CLASSIFICATION_TYPE = U
NORAD_CAT_ID   = 13068
ELEMENT_SET_NO = 999
REV_AT_EPOCH   = 39601
BSTAR          = .12198617E-3
MEAN_MOTION_DOT = .2781E-4
MEAN_MOTION_DDOT = 0

CCSDS_OMM_VERS = 2.0
CREATION_DATE  = 
ORIGINATOR     = 

OBJECT_NAME    = SL-3 R/B
OBJECT_ID      = 1982-039B
CENTER_NAME    = EARTH
REF_FRAME      = TEME
TIME_SYSTEM    = UTC
MEAN_ELEMENT_THEORY = SGP/SGP4

EPOCH          = 2026-01-13T20:27:18.148032
MEAN_MOTION    = 15.09743124
ECCENTRICITY   = .00298525
INCLINATION    = 81.1680
RA_OF_ASC_NODE = 279.1445
ARG_OF_PERICENTER = 144.0031
MEAN_ANOMALY   = 216.3213

EPHEMERIS_TYPE = 0
CLASSIFICATION_TYPE = U
NORAD_CAT_ID   = 13154
ELEMENT_SET_NO = 999
REV_AT_EPOCH   = 37336
BSTAR          = .10490016E-3
MEAN_MOTION_DOT = .1733E-4
MEAN_MOTION_DDOT = 0

